     2              NAVIGATION DATA                         RINEX VERSION / TYPE
CCRINEXN V1.6.0 UX  CDDIS               05-FEB-16 15:33     PGM / RUN BY / DATE 
IGS BROADCAST EPHEMERIS FILE                                COMMENT             
    0.1211D-07 -0.7451D-08 -0.5960D-07  0.5960D-07          ION ALPHA           
    0.1126D+06 -0.1147D+06 -0.2621D+06  0.6554D+06          ION BETA            
    0.931322574615D-09-0.799360577730D-14   503808     1882 DELTA-UTC: A0,A1,T,W
    17                                                      LEAP SECONDS        
                                                            END OF HEADER       
17 16  2  4 22  0  0.0-0.200144480914D-03-0.568434188608D-12 0.000000000000D+00
    0.520000000000D+02-0.111812500000D+03 0.423160483476D-08-0.928452087425D+00
   -0.566430389881D-05 0.109803687083D-01 0.702776014805D-05 0.515363665390D+04
    0.424800000000D+06 0.745058059692D-08-0.116397008220D+01 0.236555933952D-06
    0.975029185674D+00 0.253156250000D+03-0.195562487997D+01-0.816712590786D-08
   -0.264653881039D-09 0.100000000000D+01 0.188200000000D+04 0.000000000000D+00
    0.200000000000D+01 0.000000000000D+00-0.107102096081D-07 0.520000000000D+02
    0.417618000000D+06 0.400000000000D+01 0.000000000000D+00 0.000000000000D+00
18 16  2  4 22  0  0.0 0.480176880956D-03 0.397903932026D-11 0.000000000000D+00
    0.700000000000D+02 0.133125000000D+02 0.580881338896D-08 0.626614452641D+00
    0.689178705215D-06 0.165861074347D-01 0.603497028351D-05 0.515365272331D+04
    0.424800000000D+06-0.204890966415D-06 0.856096896535D+00 0.540167093277D-07
    0.924933709465D+00 0.245968750000D+03-0.191491428803D+01-0.895823028911D-08
    0.166792661870D-09 0.000000000000D+00 0.188200000000D+04 0.000000000000D+00
    0.200000000000D+01 0.000000000000D+00-0.111758708954D-07 0.700000000000D+02
    0.420810000000D+06 0.400000000000D+01 0.000000000000D+00 0.000000000000D+00
19 16  2  4 22  0  0.0-0.524740200490D-03-0.113686837722D-12 0.000000000000D+00
    0.370000000000D+02-0.126000000000D+03 0.407088385437D-08 0.246896337819D+01
   -0.669993460178D-05 0.112533210777D-01 0.720284879208D-05 0.515520142937D+04
    0.424800000000D+06-0.670552253723D-07-0.111490605540D+01-0.165775418282D-06
    0.972137621297D+00 0.249375000000D+03 0.677922232971D+00-0.786425614926D-08
   -0.265725354242D-09 0.100000000000D+01 0.188200000000D+04 0.000000000000D+00
    0.200000000000D+01 0.000000000000D+00-0.153668224812D-07 0.370000000000D+02
    0.417648000000D+06 0.400000000000D+01 0.000000000000D+00 0.000000000000D+00
21 16  2  4 22  0  0.0-0.508822035044D-03-0.193267624127D-11 0.000000000000D+00
    0.730000000000D+02-0.453437500000D+02 0.485127350359D-08 0.150354088735D+01
   -0.263378024101D-05 0.230791779468D-01 0.106021761894D-04 0.515368276596D+04
    0.424800000000D+06-0.366941094399D-06-0.185870370453D+00-0.532716512680D-06
    0.935993999199D+00 0.168218750000D+03-0.183443132032D+01-0.825677249915D-08
    0.370015412627D-09 0.000000000000D+00 0.188200000000D+04 0.000000000000D+00
    0.200000000000D+01 0.000000000000D+00-0.116415321827D-07 0.730000000000D+02
    0.417630000000D+06 0.400000000000D+01 0.000000000000D+00 0.000000000000D+00
22 16  2  4 22  0  0.0 0.401976518333D-03-0.557065504836D-11 0.000000000000D+00
    0.130000000000D+02 0.110000000000D+02 0.578881255585D-08-0.468559931939D+00
    0.678002834320D-06 0.760501704644D-02 0.562705099583D-05 0.515508610725D+04
    0.424800000000D+06-0.596046447754D-07 0.856875909190D+00 0.931322574615D-07
    0.922784577476D+00 0.251843750000D+03-0.202497600077D+01-0.876322216624D-08
    0.255724937684D-09 0.100000000000D+01 0.188200000000D+04 0.000000000000D+00
    0.200000000000D+01 0.000000000000D+00-0.176951289177D-07 0.130000000000D+02
    0.417618000000D+06 0.400000000000D+01 0.000000000000D+00 0.000000000000D+00
23 16  2  4 22  0  0.0-0.158436596394D-03-0.193267624127D-11 0.000000000000D+00
    0.660000000000D+02-0.418750000000D+01 0.496092092798D-08-0.220227105850D+01
   -0.532716512680D-06 0.104582958156D-01 0.897981226444D-05 0.515373042679D+04
    0.424800000000D+06 0.169500708580D-06 0.193238631217D+01-0.162050127983D-06
    0.946285339691D+00 0.198500000000D+03-0.261307449606D+01-0.806212153401D-08
   -0.327156484524D-09 0.100000000000D+01 0.188200000000D+04 0.000000000000D+00
    0.200000000000D+01 0.000000000000D+00-0.200234353542D-07 0.660000000000D+02
    0.417618000000D+06 0.400000000000D+01 0.000000000000D+00 0.000000000000D+00
24 16  2  4 22  0  0.0-0.118366442621D-04-0.568434188608D-12 0.000000000000D+00
    0.350000000000D+02 0.902812500000D+02 0.460519182472D-08-0.281595241270D+01
    0.464171171188D-05 0.422625534702D-02 0.100284814835D-04 0.515364035797D+04
    0.424800000000D+06-0.894069671631D-07 0.295846754254D+01-0.894069671631D-07
    0.951017876752D+00 0.181125000000D+03 0.354014713220D+00-0.799211861811D-08
   -0.178578867098D-10 0.000000000000D+00 0.188200000000D+04 0.000000000000D+00
    0.200000000000D+01 0.000000000000D+00 0.232830643654D-08 0.350000000000D+02
    0.417600000000D+06 0.400000000000D+01 0.000000000000D+00 0.000000000000D+00
25 16  2  4 22  0  0.0-0.111368019134D-03-0.659383658785D-11 0.000000000000D+00
    0.350000000000D+02 0.455312500000D+02 0.435589572625D-08 0.152795060153D+01
    0.233948230743D-05 0.508386024740D-02 0.250153243542D-05 0.515356270218D+04
    0.424800000000D+06-0.577419996262D-07-0.225580018192D+01 0.109896063805D-06
    0.978597959699D+00 0.340375000000D+03 0.695659631919D+00-0.827855912093D-08
    0.292869342041D-10 0.000000000000D+00 0.188200000000D+04 0.000000000000D+00
    0.200000000000D+01 0.000000000000D+00 0.558793544769D-08 0.350000000000D+02
    0.422730000000D+06 0.400000000000D+01 0.000000000000D+00 0.000000000000D+00
26 16  2  4 22  0  0.0-0.240861903876D-03-0.160298441187D-10 0.000000000000D+00
    0.112000000000D+03 0.355312500000D+02 0.475805533496D-08 0.994299626216D+00
    0.193715095520D-05 0.802546390332D-03 0.178627669811D-05 0.515370481491D+04
    0.424800000000D+06 0.186264514923D-07-0.226279652327D+01-0.502914190292D-07
    0.960624940239D+00 0.339718750000D+03-0.146522894855D+00-0.845142346428D-08
   -0.292869342041D-10 0.100000000000D+01 0.188200000000D+04 0.000000000000D+00
    0.200000000000D+01 0.000000000000D+00 0.698491930962D-08 0.112000000000D+03
    0.417618000000D+06 0.400000000000D+01 0.000000000000D+00 0.000000000000D+00
27 16  2  4 22  0  0.0 0.597774051130D-04 0.352429196937D-11 0.000000000000D+00
    0.410000000000D+02-0.979375000000D+02 0.422624746874D-08-0.897564766558D+00
   -0.515021383762D-05 0.313204259146D-02 0.666268169880D-05 0.515363313293D+04
    0.424800000000D+06 0.912696123123D-07-0.121324186677D+01-0.558793544769D-07
    0.969943446061D+00 0.257406250000D+03 0.207484669084D+00-0.803176312660D-08
   -0.289654922433D-09 0.100000000000D+01 0.188200000000D+04 0.000000000000D+00
    0.200000000000D+01 0.000000000000D+00 0.139698386192D-08 0.410000000000D+02
    0.417618000000D+06 0.400000000000D+01 0.000000000000D+00 0.000000000000D+00
28 16  2  4 22  0  0.0 0.500164460391D-03 0.261479726760D-11 0.000000000000D+00
    0.130000000000D+02 0.212812500000D+02 0.425946313802D-08-0.182265955354D+00
    0.119768083096D-05 0.199778075330D-01 0.267848372459D-05 0.515362108612D+04
    0.424800000000D+06-0.292435288429D-06-0.218238071374D+01 0.106170773506D-06
    0.989431947709D+00 0.346000000000D+03-0.162492964708D+01-0.856214236188D-08
    0.275011455331D-10 0.000000000000D+00 0.188200000000D+04 0.000000000000D+00
    0.200000000000D+01 0.000000000000D+00-0.107102096081D-07 0.130000000000D+02
    0.417600000000D+06 0.400000000000D+01 0.000000000000D+00 0.000000000000D+00
29 16  2  4 22  0  0.0 0.653527211398D-03 0.909494701773D-12 0.000000000000D+00
    0.400000000000D+02-0.102875000000D+03 0.407552690491D-08 0.164881796117D+01
   -0.542216002941D-05 0.101997226011D-02 0.643357634544D-05 0.515362451172D+04
    0.424800000000D+06-0.558793544769D-08-0.115435736599D+01 0.521540641785D-07
    0.975965337674D+00 0.263906250000D+03-0.579218878060D+00-0.793247327649D-08
   -0.219294848796D-09 0.000000000000D+00 0.188200000000D+04 0.000000000000D+00
    0.200000000000D+01 0.000000000000D+00-0.102445483208D-07 0.400000000000D+02
    0.417600000000D+06 0.400000000000D+01 0.000000000000D+00 0.000000000000D+00
30 16  2  4 22  0  0.0 0.926572829485D-04 0.443378667114D-11 0.000000000000D+00
    0.134000000000D+03 0.115687500000D+03 0.465519390751D-08 0.257384670618D+01
    0.600144267082D-05 0.166700570844D-02 0.899843871594D-05 0.515364690590D+04
    0.424800000000D+06-0.279396772385D-07 0.304938507481D+01 0.316649675369D-07
    0.953721043612D+00 0.203812500000D+03 0.303606424895D+01-0.810890919719D-08
    0.839320675361D-10 0.000000000000D+00 0.188200000000D+04 0.000000000000D+00
    0.200000000000D+01 0.000000000000D+00 0.325962901115D-08 0.134000000000D+03
    0.417600000000D+06 0.400000000000D+01 0.000000000000D+00 0.000000000000D+00
31 16  2  4 22  0  0.0 0.284068752080D-03-0.159161572810D-11 0.000000000000D+00
    0.380000000000D+02 0.980625000000D+02 0.413552940426D-08 0.246667298976D+01
    0.533089041710D-05 0.835637177806D-02 0.947900116444D-05 0.515369550323D+04
    0.424800000000D+06 0.000000000000D+00 0.301250181157D+01 0.208616256714D-06
    0.972776998421D+00 0.203906250000D+03-0.437281315596D+00-0.776996650744D-08
   -0.589310261423D-10 0.100000000000D+01 0.188200000000D+04 0.000000000000D+00
    0.200000000000D+01 0.000000000000D+00-0.135041773319D-07 0.380000000000D+02
    0.424380000000D+06 0.400000000000D+01 0.000000000000D+00 0.000000000000D+00
